start=new Date('2021-11-17T00:00:00.000Z').valueOf();
sats=[{"LAUNCH_DATE":"2019-11-11","OBJECT_ID":"2019-074AC","ECCENTRICITY":"0.00015850","RCS_SIZE":"LARGE","DECAY_DATE":null,"MEAN_MOTION":"15.08112527","TLE_LINE1":"1 44739U 19074AC  21320.77875144  .00006570  00000-0  43900-3 0  9996","EPHEMERIS_TYPE":"0","CLASSIFICATION_TYPE":"U","SEMIMAJOR_AXIS":"6920.105","APOAPSIS":"543.067","INCLINATION":"52.9992","TLE_LINE2":"2 44739  52.9992  69.2653 0001585  90.7490 269.3680 15.08112527111429","MEAN_MOTION_DOT":"0.00006570","REF_FRAME":"TEME","BSTAR":"0.00043900000000","FILE":"3217019","MEAN_ANOMALY":"269.3680","ELEMENT_SET_NO":"999","GP_ID":"189887269","RA_OF_ASC_NODE":"69.2653","SITE":"AFETR","OBJECT_NAME":"STARLINK-1034","MEAN_MOTION_DDOT":"0.0000000000000","PERIAPSIS":"540.873","MEAN_ELEMENT_THEORY":"SGP4","CENTER_NAME":"EARTH","TIME_SYSTEM":"UTC","EPOCH":"2021-11-16T18:41:24.124416","REV_AT_EPOCH":"11142","OBJECT_TYPE":"PAYLOAD","COUNTRY_CODE":"US","ARG_OF_PERICENTER":"90.7490","NORAD_CAT_ID":"44739","PERIOD":"95.484"},{"SITE":"AFETR","RA_OF_ASC_NODE":"72.2819","GP_ID":"189887558","ELEMENT_SET_NO":"999","PERIAPSIS":"546.387","MEAN_MOTION_DDOT":"0.0000000000000","OBJECT_NAME":"STARLINK-1035","APOAPSIS":"548.028","INCLINATION":"53.0551","SEMIMAJOR_AXIS":"6925.343","CLASSIFICATION_TYPE":"U","MEAN_ANOMALY":"264.1356","FILE":"3217019","REF_FRAME":"TEME","BSTAR":"0.00005275700000","MEAN_MOTION_DOT":"0.00000505","TLE_LINE2":"2 44740  53.0551  72.2819 0001185  95.9768 264.1356 15.06401976111412","ARG_OF_PERICENTER":"95.9768","OBJECT_TYPE":"PAYLOAD","COUNTRY_CODE":"US","REV_AT_EPOCH":"11141","PERIOD":"95.592","NORAD_CAT_ID":"44740","MEAN_ELEMENT_THEORY":"SGP4","EPOCH":"2021-11-16T18:07:48.059904","CENTER_NAME":"EARTH","TIME_SYSTEM":"UTC","OBJECT_ID":"2019-074AD","LAUNCH_DATE":"2019-11-11","RCS_SIZE":"LARGE","ECCENTRICITY":"0.00011850","TLE_LINE1":"1 44740U 19074AD  21320.75541736  .00000505  00000-0  52757-4 0  9996","EPHEMERIS_TYPE":"0","DECAY_DATE":null,"MEAN_MOTION":"15.06401976"},{"EPHEMERIS_TYPE":"0","TLE_LINE1":"1 44741U 19074AE  21320.50110170 -.00000099  00000-0  12219-4 0  9992","MEAN_MOTION":"15.06401225","DECAY_DATE":null,"RCS_SIZE":"LARGE","ECCENTRICITY":"0.00010530","LAUNCH_DATE":"2019-11-11","OBJECT_ID":"2019-074AE","NORAD_CAT_ID":"44741","PERIOD":"95.592","COUNTRY_CODE":"US","OBJECT_TYPE":"PAYLOAD","REV_AT_EPOCH":"11120","ARG_OF_PERICENTER":"88.6280","TIME_SYSTEM":"UTC","CENTER_NAME":"EARTH","EPOCH":"2021-11-16T12:01:35.186880","MEAN_ELEMENT_THEORY":"SGP4","MEAN_MOTION_DDOT":"0.0000000000000","PERIAPSIS":"546.481","OBJECT_NAME":"STARLINK-1036","ELEMENT_SET_NO":"999","GP_ID":"189880299","SITE":"AFETR","RA_OF_ASC_NODE":"73.4263","MEAN_MOTION_DOT":"-0.00000099","TLE_LINE2":"2 44741  53.0549  73.4263 0001053  88.6280 271.4830 15.06401225111200","MEAN_ANOMALY":"271.4830","FILE":"3216827","BSTAR":"0.00001221900000","REF_FRAME":"TEME","CLASSIFICATION_TYPE":"U","APOAPSIS":"547.939","INCLINATION":"53.0549","SEMIMAJOR_AXIS":"6925.345"},{"EPHEMERIS_TYPE":"0","TLE_LINE1":"1 44742U 19074AF  21320.54110990  .00004766  00000-0  31411-3 0  9995","MEAN_MOTION":"15.09219051","DECAY_DATE":null,"RCS_SIZE":"LARGE","ECCENTRICITY":"0.00016890","LAUNCH_DATE":"2019-11-11","OBJECT_ID":"2019-074AF","NORAD_CAT_ID":"44742","PERIOD":"95.414","OBJECT_TYPE":"PAYLOAD","COUNTRY_CODE":"US","REV_AT_EPOCH":"11127","ARG_OF_PERICENTER":"127.4600","CENTER_NAME":"EARTH","TIME_SYSTEM":"UTC","EPOCH":"2021-11-16T12:59:11.895360","MEAN_ELEMENT_THEORY":"SGP4","PERIAPSIS":"537.419","MEAN_MOTION_DDOT":"0.0000000000000","OBJECT_NAME":"STARLINK-1037","GP_ID":"189880049","ELEMENT_SET_NO":"999","SITE":"AFETR","RA_OF_ASC_NODE":"66.6880","MEAN_MOTION_DOT":"0.00004766","TLE_LINE2":"2 44742  52.9982  66.6880 0001689 127.4600 232.6543 15.09219051111276","MEAN_ANOMALY":"232.6543","FILE":"3216827","REF_FRAME":"TEME","BSTAR":"0.00031411000000","CLASSIFICATION_TYPE":"U","INCLINATION":"52.9982","APOAPSIS":"539.755","SEMIMAJOR_AXIS":"6916.722"},{"CENTER_NAME":"EARTH","TIME_SYSTEM":"UTC","EPOCH":"2021-11-16T17:59:50.807904","MEAN_ELEMENT_THEORY":"SGP4","NORAD_CAT_ID":"44743","PERIOD":"95.593","OBJECT_TYPE":"PAYLOAD","COUNTRY_CODE":"US","REV_AT_EPOCH":"11113","ARG_OF_PERICENTER":"96.3875","MEAN_MOTION_DOT":"0.00001135","TLE_LINE2":"2 44743  53.0533  92.3095 0001295  96.3875 263.7261 15.06393094111130","FILE":"3217008","MEAN_ANOMALY":"263.7261","REF_FRAME":"TEME","BSTAR":"0.00009510800000","CLASSIFICATION_TYPE":"U","APOAPSIS":"548.132","INCLINATION":"53.0533","SEMIMAJOR_AXIS":"6925.370","PERIAPSIS":"546.338","MEAN_MOTION_DDOT":"0.0000000000000","OBJECT_NAME":"STARLINK-1038","GP_ID":"189887278","ELEMENT_SET_NO":"999","SITE":"AFETR","RA_OF_ASC_NODE":"92.3095","MEAN_MOTION":"15.06393094","DECAY_DATE":null,"EPHEMERIS_TYPE":"0","TLE_LINE1":"1 44743U 19074AG  21320.74989361  .00001135  00000-0  95108-4 0  9995","RCS_SIZE":"LARGE","ECCENTRICITY":"0.00012950","LAUNCH_DATE":"2019-11-11","OBJECT_ID":"2019-074AG"},{"TLE_LINE2":"2 44744  53.0544  93.1544 0001474  92.1581 267.9577 15.06397740110933","MEAN_MOTION_DOT":"-0.00000436","BSTAR":"-0.00001037300000","REF_FRAME":"TEME","MEAN_ANOMALY":"267.9577","FILE":"3216827","CLASSIFICATION_TYPE":"U","SEMIMAJOR_AXIS":"6925.355","INCLINATION":"53.0544","APOAPSIS":"548.241","OBJECT_NAME":"STARLINK-1039","MEAN_MOTION_DDOT":"0.0000000000000","PERIAPSIS":"546.200","GP_ID":"189879041","ELEMENT_SET_NO":"999","RA_OF_ASC_NODE":"93.1544","SITE":"AFETR","CENTER_NAME":"EARTH","TIME_SYSTEM":"UTC","EPOCH":"2021-11-16T13:29:09.654720","MEAN_ELEMENT_THEORY":"SGP4","NORAD_CAT_ID":"44744","PERIOD":"95.592","REV_AT_EPOCH":"11093","OBJECT_TYPE":"PAYLOAD","COUNTRY_CODE":"US","ARG_OF_PERICENTER":"92.1581","ECCENTRICITY":"0.00014740","RCS_SIZE":"LARGE","LAUNCH_DATE":"2019-11-11","OBJECT_ID":"2019-074AH","MEAN_MOTION":"15.06397740","DECAY_DATE":null,"EPHEMERIS_TYPE":"0","TLE_LINE1":"1 44744U 19074AH  21320.56191730 -.00000436  00000-0 -10373-4 0  9997"},{"EPHEMERIS_TYPE":"0","TLE_LINE1":"1 44746U 19074AK  21320.54719188  .00001427  00000-0  11465-3 0  9991","MEAN_MOTION":"15.06397446","DECAY_DATE":null,"ECCENTRICITY":"0.00013280","RCS_SIZE":"LARGE","OBJECT_ID":"2019-074AK","LAUNCH_DATE":"2019-11-11","PERIOD":"95.592","NORAD_CAT_ID":"44746","ARG_OF_PERICENTER":"85.1721","REV_AT_EPOCH":"11093","COUNTRY_CODE":"US","OBJECT_TYPE":"PAYLOAD","EPOCH":"2021-11-16T13:07:57.378432","CENTER_NAME":"EARTH","TIME_SYSTEM":"UTC","MEAN_ELEMENT_THEORY":"SGP4","OBJECT_NAME":"STARLINK-1041","MEAN_MOTION_DDOT":"0.0000000000000","PERIAPSIS":"546.302","RA_OF_ASC_NODE":"93.2070","SITE":"AFETR","ELEMENT_SET_NO":"999","GP_ID":"189879799","BSTAR":"0.00011465000000","REF_FRAME":"TEME","MEAN_ANOMALY":"274.9419","FILE":"3216827","TLE_LINE2":"2 44746  53.0559  93.2070 0001328  85.1721 274.9419 15.06397446110938","MEAN_MOTION_DOT":"0.00001427","SEMIMAJOR_AXIS":"6925.356","INCLINATION":"53.0559","APOAPSIS":"548.141","CLASSIFICATION_TYPE":"U"},{"EPHEMERIS_TYPE":"0","TLE_LINE1":"1 44747U 19074AL  21320.77569288 -.00001060  00000-0 -52307-4 0  9997","MEAN_MOTION":"15.06395303","DECAY_DATE":null,"ECCENTRICITY":"0.00009610","RCS_SIZE":"LARGE","LAUNCH_DATE":"2019-11-11","OBJECT_ID":"2019-074AL","NORAD_CAT_ID":"44747","PERIOD":"95.592","REV_AT_EPOCH":"11114","COUNTRY_CODE":"US","OBJECT_TYPE":"PAYLOAD","ARG_OF_PERICENTER":"81.3385","TIME_SYSTEM":"UTC","CENTER_NAME":"EARTH","EPOCH":"2021-11-16T18:36:59.864832","MEAN_ELEMENT_THEORY":"SGP4","OBJECT_NAME":"STARLINK-1042","MEAN_MOTION_DDOT":"0.0000000000000","PERIAPSIS":"546.562","GP_ID":"189887292","ELEMENT_SET_NO":"999","RA_OF_ASC_NODE":"92.1948","SITE":"AFETR","TLE_LINE2":"2 44747  53.0536  92.1948 0000961  81.3385 278.7713 15.06395303111145","MEAN_MOTION_DOT":"-0.00001060","REF_FRAME":"TEME","BSTAR":"-0.00005230700000","MEAN_ANOMALY":"278.7713","FILE":"3217009","CLASSIFICATION_TYPE":"U","SEMIMAJOR_AXIS":"6925.363","INCLINATION":"53.0536","APOAPSIS":"547.893"},{"MEAN_MOTION":"15.06388893","DECAY_DATE":null,"EPHEMERIS_TYPE":"0","TLE_LINE1":"1 44748U 19074AM  21320.80518567  .00001070  00000-0  90736-4 0  9993","ECCENTRICITY":"0.00014600","RCS_SIZE":"LARGE","LAUNCH_DATE":"2019-11-11","OBJECT_ID":"2019-074AM","TIME_SYSTEM":"UTC","CENTER_NAME":"EARTH","EPOCH":"2021-11-16T19:19:28.041888","MEAN_ELEMENT_THEORY":"SGP4","NORAD_CAT_ID":"44748","PERIOD":"95.593","REV_AT_EPOCH":"11114","COUNTRY_CODE":"US","OBJECT_TYPE":"PAYLOAD","ARG_OF_PERICENTER":"88.8607","TLE_LINE2":"2 44748  53.0547  92.0568 0001460  88.8607 271.2550 15.06388893111142","MEAN_MOTION_DOT":"0.00001070","REF_FRAME":"TEME","BSTAR":"0.00009073600000","MEAN_ANOMALY":"271.2550","FILE":"3217009","CLASSIFICATION_TYPE":"U","SEMIMAJOR_AXIS":"6925.383","APOAPSIS":"548.259","INCLINATION":"53.0547","OBJECT_NAME":"STARLINK-1043","MEAN_MOTION_DDOT":"0.0000000000000","PERIAPSIS":"546.236","ELEMENT_SET_NO":"999","GP_ID":"189887581","RA_OF_ASC_NODE":"92.0568","SITE":"AFETR"},{"GP_ID":"189879542","ELEMENT_SET_NO":"999","SITE":"AFETR","RA_OF_ASC_NODE":"93.1949","MEAN_MOTION_DDOT":"0.0000000000000","PERIAPSIS":"546.367","OBJECT_NAME":"STARLINK-1046","CLASSIFICATION_TYPE":"U","APOAPSIS":"548.053","INCLINATION":"53.0557","SEMIMAJOR_AXIS":"6925.345","MEAN_MOTION_DOT":"0.00001181","TLE_LINE2":"2 44751  53.0557  93.1949 0001217  88.7582 271.3547 15.06401198110930","FILE":"3216827","MEAN_ANOMALY":"271.3547","BSTAR":"0.00009817400000","REF_FRAME":"TEME","COUNTRY_CODE":"US","OBJECT_TYPE":"PAYLOAD","REV_AT_EPOCH":"11093","ARG_OF_PERICENTER":"88.7582","NORAD_CAT_ID":"44751","PERIOD":"95.592","MEAN_ELEMENT_THEORY":"SGP4","TIME_SYSTEM":"UTC","CENTER_NAME":"EARTH","EPOCH":"2021-11-16T13:18:32.055552","LAUNCH_DATE":"2019-11-11","OBJECT_ID":"2019-074AQ","RCS_SIZE":"LARGE","ECCENTRICITY":"0.00012170","TLE_LINE1":"1 44751U 19074AQ  21320.55453768  .00001181  00000-0  98174-4 0  9997","EPHEMERIS_TYPE":"0","DECAY_DATE":null,"MEAN_MOTION":"15.06401198"}];
